{
  "type": "FeatureCollection",
  "features": [
    {
      "type": "Feature",
      "properties": {
        "norad_id": 66570,
        "name": "STARLINK-35834",
        "group": "last-30-days",
        "lat": -42.11853441031399,
        "lon": 42.71291292133529,
        "alt_km": 417.2269794133599,
        "timestamp": "2025-12-13T03:42:10.036905+00:00",
        "meta_object_name": "STARLINK-35834",
        "meta_object_id": "2025-268P",
        "meta_epoch": "2025-12-12T06:00:00.999648",
        "meta_mean_motion": 15.50532484,
        "meta_eccentricity": 0.00015377,
        "meta_inclination": 43.0001,
        "meta_ra_of_asc_node": 123.9998,
        "meta_arg_of_pericenter": 261.1182,
        "meta_mean_anomaly": 5.4675,
        "meta_ephemeris_type": 0,
        "meta_classification_type": "U",
        "meta_norad_cat_id": 66570,
        "meta_element_set_no": 999,
        "meta_rev_at_epoch": 459,
        "meta_bstar": 0.00087130921,
        "meta_mean_motion_dot": 0.00051023,
        "meta_mean_motion_ddot": 0,
        "tle_line1": "1 66570U 25268P   25346.25001157  .00051023  00000+0  87131-3 0  9991",
        "tle_line2": "2 66570  43.0001 123.9998 0001537 261.1182   5.4675 15.50532484  4594"
      },
      "geometry": {
        "type": "Point",
        "coordinates": [
          42.71291292133529,
          -42.11853441031399
        ]
      }
    },
    {
      "type": "Feature",
      "properties": {
        "norad_id": 66571,
        "name": "STARLINK-35836",
        "group": "last-30-days",
        "lat": -41.77145690933655,
        "lon": 45.26363568233607,
        "alt_km": 417.061652290251,
        "timestamp": "2025-12-13T03:42:10.036915+00:00",
        "meta_object_name": "STARLINK-35836",
        "meta_object_id": "2025-268Q",
        "meta_epoch": "2025-12-12T06:00:00.999648",
        "meta_mean_motion": 15.50553958,
        "meta_eccentricity": 0.00017877,
        "meta_inclination": 43.0002,
        "meta_ra_of_asc_node": 123.9951,
        "meta_arg_of_pericenter": 266.3972,
        "meta_mean_anomaly": 2.1065,
        "meta_ephemeris_type": 0,
        "meta_classification_type": "U",
        "meta_norad_cat_id": 66571,
        "meta_element_set_no": 999,
        "meta_rev_at_epoch": 459,
        "meta_bstar": 0.00056776036,
        "meta_mean_motion_dot": 0.00033077,
        "meta_mean_motion_ddot": 0,
        "tle_line1": "1 66571U 25268Q   25346.25001157  .00033077  00000+0  56776-3 0  9992",
        "tle_line2": "2 66571  43.0002 123.9951 0001787 266.3972   2.1065 15.50553958  4592"
      },
      "geometry": {
        "type": "Point",
        "coordinates": [
          45.26363568233607,
          -41.77145690933655
        ]
      }
    },
    {
      "type": "Feature",
      "properties": {
        "norad_id": 66572,
        "name": "STARLINK-35870",
        "group": "last-30-days",
        "lat": -41.370761817520616,
        "lon": 47.770510021364906,
        "alt_km": 417.0956463467537,
        "timestamp": "2025-12-13T03:42:10.036928+00:00",
        "meta_object_name": "STARLINK-35870",
        "meta_object_id": "2025-268R",
        "meta_epoch": "2025-12-12T06:00:00.999648",
        "meta_mean_motion": 15.50553631,
        "meta_eccentricity": 0.00016962,
        "meta_inclination": 43.0001,
        "meta_ra_of_asc_node": 123.9912,
        "meta_arg_of_pericenter": 269.0669,
        "meta_mean_anomaly": 1.3568,
        "meta_ephemeris_type": 0,
        "meta_classification_type": "U",
        "meta_norad_cat_id": 66572,
        "meta_element_set_no": 999,
        "meta_rev_at_epoch": 459,
        "meta_bstar": 0.00059691946,
        "meta_mean_motion_dot": 0.00034801,
        "meta_mean_motion_ddot": 0,
        "tle_line1": "1 66572U 25268R   25346.25001157  .00034801  00000+0  59692-3 0  9999",
        "tle_line2": "2 66572  43.0001 123.9912 0001696 269.0669   1.3568 15.50553631  4598"
      },
      "geometry": {
        "type": "Point",
        "coordinates": [
          47.770510021364906,
          -41.370761817520616
        ]
      }
    },
    {
      "type": "Feature",
      "properties": {
        "norad_id": 66573,
        "name": "STARLINK-35650",
        "group": "last-30-days",
        "lat": -40.95363540087504,
        "lon": 50.05111825091879,
        "alt_km": 417.69852949714004,
        "timestamp": "2025-12-13T03:42:10.036938+00:00",
        "meta_object_name": "STARLINK-35650",
        "meta_object_id": "2025-268S",
        "meta_epoch": "2025-12-12T06:00:00.999648",
        "meta_mean_motion": 15.50667909,
        "meta_eccentricity": 0.00016756,
        "meta_inclination": 43.0001,
        "meta_ra_of_asc_node": 123.9854,
        "meta_arg_of_pericenter": 262.5527,
        "meta_mean_anomaly": 9.7922,
        "meta_ephemeris_type": 0,
        "meta_classification_type": "U",
        "meta_norad_cat_id": 66573,
        "meta_element_set_no": 999,
        "meta_rev_at_epoch": 459,
        "meta_bstar": -0.002427507,
        "meta_mean_motion_dot": -0.00140672,
        "meta_mean_motion_ddot": 0,
        "tle_line1": "1 66573U 25268S   25346.25001157 -.00140672  00000+0 -24275-2 0  9994",
        "tle_line2": "2 66573  43.0001 123.9854 0001675 262.5527   9.7922 15.50667909  4592"
      },
      "geometry": {
        "type": "Point",
        "coordinates": [
          50.05111825091879,
          -40.95363540087504
        ]
      }
    },
    {
      "type": "Feature",
      "properties": {
        "norad_id": 66574,
        "name": "STARLINK-35812",
        "group": "last-30-days",
        "lat": -40.41040821298391,
        "lon": 52.675547831149714,
        "alt_km": 417.1156557901031,
        "timestamp": "2025-12-13T03:42:10.036950+00:00",
        "meta_object_name": "STARLINK-35812",
        "meta_object_id": "2025-268T",
        "meta_epoch": "2025-12-12T06:00:00.999648",
        "meta_mean_motion": 15.50525728,
        "meta_eccentricity": 0.00015316,
        "meta_inclination": 43,
        "meta_ra_of_asc_node": 123.9804,
        "meta_arg_of_pericenter": 267.9839,
        "meta_mean_anomaly": 6.2872,
        "meta_ephemeris_type": 0,
        "meta_classification_type": "U",
        "meta_norad_cat_id": 66574,
        "meta_element_set_no": 999,
        "meta_rev_at_epoch": 459,
        "meta_bstar": 0.0010946197,
        "meta_mean_motion_dot": 0.00064281,
        "meta_mean_motion_ddot": 0,
        "tle_line1": "1 66574U 25268T   25346.25001157  .00064281  00000+0  10946-2 0  9994",
        "tle_line2": "2 66574  43.0000 123.9804 0001531 267.9839   6.2872 15.50525728  4591"
      },
      "geometry": {
        "type": "Point",
        "coordinates": [
          52.675547831149714,
          -40.41040821298391
        ]
      }
    },
    {
      "type": "Feature",
      "properties": {
        "norad_id": 66575,
        "name": "STARLINK-35810",
        "group": "last-30-days",
        "lat": -39.876520037326046,
        "lon": 54.97962046669822,
        "alt_km": 417.31016251509664,
        "timestamp": "2025-12-13T03:42:10.036960+00:00",
        "meta_object_name": "STARLINK-35810",
        "meta_object_id": "2025-268U",
        "meta_epoch": "2025-12-12T06:00:00.999648",
        "meta_mean_motion": 15.50567097,
        "meta_eccentricity": 0.00015381,
        "meta_inclination": 43.0001,
        "meta_ra_of_asc_node": 123.9758,
        "meta_arg_of_pericenter": 270.9336,
        "meta_mean_anomaly": 5.2508,
        "meta_ephemeris_type": 0,
        "meta_classification_type": "U",
        "meta_norad_cat_id": 66575,
        "meta_element_set_no": 999,
        "meta_rev_at_epoch": 459,
        "meta_bstar": -7.1007993e-05,
        "meta_mean_motion_dot": -4.503e-05,
        "meta_mean_motion_ddot": 0,
        "tle_line1": "1 66575U 25268U   25346.25001157 -.00004503  00000+0 -71008-4 0  9996",
        "tle_line2": "2 66575  43.0001 123.9758 0001538 270.9336   5.2508 15.50567097  4594"
      },
      "geometry": {
        "type": "Point",
        "coordinates": [
          54.97962046669822,
          -39.876520037326046
        ]
      }
    },
    {
      "type": "Feature",
      "properties": {
        "norad_id": 66576,
        "name": "STARLINK-35814",
        "group": "last-30-days",
        "lat": -39.24970431560768,
        "lon": 57.42378141671683,
        "alt_km": 417.1055358036692,
        "timestamp": "2025-12-13T03:42:10.036970+00:00",
        "meta_object_name": "STARLINK-35814",
        "meta_object_id": "2025-268V",
        "meta_epoch": "2025-12-12T06:00:00.999648",
        "meta_mean_motion": 15.50524507,
        "meta_eccentricity": 0.00014889,
        "meta_inclination": 43,
        "meta_ra_of_asc_node": 123.9707,
        "meta_arg_of_pericenter": 267.1355,
        "meta_mean_anomaly": 10.9698,
        "meta_ephemeris_type": 0,
        "meta_classification_type": "U",
        "meta_norad_cat_id": 66576,
        "meta_element_set_no": 999,
        "meta_rev_at_epoch": 459,
        "meta_bstar": 0.0011380251,
        "meta_mean_motion_dot": 0.00066863,
        "meta_mean_motion_ddot": 0,
        "tle_line1": "1 66576U 25268V   25346.25001157  .00066863  00000+0  11380-2 0  9997",
        "tle_line2": "2 66576  43.0000 123.9707 0001488 267.1355  10.9698 15.50524507  4593"
      },
      "geometry": {
        "type": "Point",
        "coordinates": [
          57.42378141671683,
          -39.24970431560768
        ]
      }
    }
  ]
}